start=new Date('2021-11-20T00:00:00.000Z').valueOf();
sats=[{"ELEMENT_SET_NO":"999","TIME_SYSTEM":"UTC","SEMIMAJOR_AXIS":"6917.917","NORAD_CAT_ID":"45202","RA_OF_ASC_NODE":"255.0465","MEAN_MOTION_DOT":"0.00003893","CLASSIFICATION_TYPE":"U","APOAPSIS":"540.904","OBJECT_NAME":"STARLINK-1203","LAUNCH_DATE":"2020-02-17","COUNTRY_CODE":"US","MEAN_ANOMALY":"284.2945","BSTAR":"0.00026265000000","EPHEMERIS_TYPE":"0","OBJECT_ID":"2020-012AA","ARG_OF_PERICENTER":"75.8224","REV_AT_EPOCH":"9807","FILE":"3219209","SITE":"AFETR","TLE_LINE1":"1 45202U 20012AA  21323.33976561  .00003893  00000-0  26265-3 0  9996","INCLINATION":"52.9820","CENTER_NAME":"EARTH","PERIAPSIS":"538.661","TLE_LINE2":"2 45202  52.9820 255.0465 0001621  75.8224 284.2945 15.08827973 98074","DECAY_DATE":null,"RCS_SIZE":"LARGE","ECCENTRICITY":"0.00016210","PERIOD":"95.438","GP_ID":"190073131","OBJECT_TYPE":"PAYLOAD","MEAN_MOTION":"15.08827973","REF_FRAME":"TEME","MEAN_ELEMENT_THEORY":"SGP4","MEAN_MOTION_DDOT":"0.0000000000000","EPOCH":"2021-11-19T08:09:15.748704"},{"SITE":"AFETR","TLE_LINE1":"1 45203U 20012AB  21323.53908754  .00595572  00000-0  46221-2 0  9991","INCLINATION":"53.0535","CENTER_NAME":"EARTH","LAUNCH_DATE":"2020-02-17","COUNTRY_CODE":"US","MEAN_ANOMALY":"336.4230","EPHEMERIS_TYPE":"0","BSTAR":"0.00462210000000","OBJECT_ID":"2020-012AB","ARG_OF_PERICENTER":"23.6871","REV_AT_EPOCH":"9850","FILE":"3219209","RA_OF_ASC_NODE":"220.2587","MEAN_MOTION_DOT":"0.00595572","CLASSIFICATION_TYPE":"U","APOAPSIS":"361.669","OBJECT_NAME":"STARLINK-1204","ELEMENT_SET_NO":"999","TIME_SYSTEM":"UTC","NORAD_CAT_ID":"45203","SEMIMAJOR_AXIS":"6738.555","PERIOD":"91.751","GP_ID":"190073881","OBJECT_TYPE":"PAYLOAD","MEAN_ELEMENT_THEORY":"SGP4","MEAN_MOTION":"15.69468437","REF_FRAME":"TEME","MEAN_MOTION_DDOT":"0.0000000000000","EPOCH":"2021-11-19T12:56:17.163456","ECCENTRICITY":"0.00018540","DECAY_DATE":null,"RCS_SIZE":"LARGE","TLE_LINE2":"2 45203  53.0535 220.2587 0001854  23.6871 336.4230 15.69468437 98504","PERIAPSIS":"359.171"},{"RA_OF_ASC_NODE":"240.1010","MEAN_MOTION_DOT":"-0.00001880","APOAPSIS":"548.476","CLASSIFICATION_TYPE":"U","OBJECT_NAME":"STARLINK-1206","ELEMENT_SET_NO":"999","TIME_SYSTEM":"UTC","SEMIMAJOR_AXIS":"6925.367","NORAD_CAT_ID":"45204","SITE":"AFETR","TLE_LINE1":"1 45204U 20012AC  21323.46643820 -.00001880  00000-0 -10737-3 0  9994","INCLINATION":"53.0531","CENTER_NAME":"EARTH","LAUNCH_DATE":"2020-02-17","COUNTRY_CODE":"US","MEAN_ANOMALY":"298.6657","EPHEMERIS_TYPE":"0","BSTAR":"-0.00010737000000","OBJECT_ID":"2020-012AC","ARG_OF_PERICENTER":"61.4513","REV_AT_EPOCH":"9831","FILE":"3219209","DECAY_DATE":null,"RCS_SIZE":"LARGE","TLE_LINE2":"2 45204  53.0531 240.1010 0001797  61.4513 298.6657 15.06394124 98315","PERIAPSIS":"545.987","PERIOD":"95.593","GP_ID":"190072628","OBJECT_TYPE":"PAYLOAD","MEAN_MOTION":"15.06394124","MEAN_ELEMENT_THEORY":"SGP4","REF_FRAME":"TEME","MEAN_MOTION_DDOT":"0.0000000000000","EPOCH":"2021-11-19T11:11:40.260480","ECCENTRICITY":"0.00017970"},{"RCS_SIZE":"LARGE","DECAY_DATE":null,"PERIAPSIS":"545.985","TLE_LINE2":"2 45205  53.0540 240.0092 0001769  66.3756 293.7419 15.06401186 98327","MEAN_MOTION_DDOT":"0.0000000000000","EPOCH":"2021-11-19T11:43:30.112608","OBJECT_TYPE":"PAYLOAD","MEAN_MOTION":"15.06401186","MEAN_ELEMENT_THEORY":"SGP4","REF_FRAME":"TEME","GP_ID":"190072879","PERIOD":"95.592","ECCENTRICITY":"0.00017690","OBJECT_NAME":"STARLINK-1208","CLASSIFICATION_TYPE":"U","APOAPSIS":"548.435","RA_OF_ASC_NODE":"240.0092","MEAN_MOTION_DOT":"0.00000119","SEMIMAJOR_AXIS":"6925.345","NORAD_CAT_ID":"45205","ELEMENT_SET_NO":"999","TIME_SYSTEM":"UTC","CENTER_NAME":"EARTH","INCLINATION":"53.0540","SITE":"AFETR","TLE_LINE1":"1 45205U 20012AD  21323.48854297  .00000119  00000-0  26862-4 0  9998","REV_AT_EPOCH":"9832","FILE":"3219209","OBJECT_ID":"2020-012AD","ARG_OF_PERICENTER":"66.3756","LAUNCH_DATE":"2020-02-17","COUNTRY_CODE":"US","MEAN_ANOMALY":"293.7419","EPHEMERIS_TYPE":"0","BSTAR":"0.00002686200000"},{"OBJECT_NAME":"STARLINK-1209","APOAPSIS":"548.497","CLASSIFICATION_TYPE":"U","MEAN_MOTION_DOT":"-0.00000707","RA_OF_ASC_NODE":"220.1986","NORAD_CAT_ID":"45206","SEMIMAJOR_AXIS":"6925.362","TIME_SYSTEM":"UTC","ELEMENT_SET_NO":"999","CENTER_NAME":"EARTH","INCLINATION":"53.0550","TLE_LINE1":"1 45206U 20012AE  21323.44985069 -.00000707  00000-0 -28534-4 0  9990","SITE":"AFETR","FILE":"3219209","REV_AT_EPOCH":"9762","ARG_OF_PERICENTER":"74.0767","OBJECT_ID":"2020-012AE","BSTAR":"-0.00002853400000","EPHEMERIS_TYPE":"0","LAUNCH_DATE":"2020-02-17","COUNTRY_CODE":"US","MEAN_ANOMALY":"286.0425","RCS_SIZE":"LARGE","DECAY_DATE":null,"TLE_LINE2":"2 45206  53.0550 220.1986 0001835  74.0767 286.0425 15.06395774 97621","PERIAPSIS":"545.956","EPOCH":"2021-11-19T10:47:47.099616","MEAN_MOTION_DDOT":"0.0000000000000","MEAN_ELEMENT_THEORY":"SGP4","MEAN_MOTION":"15.06395774","REF_FRAME":"TEME","OBJECT_TYPE":"PAYLOAD","GP_ID":"190073631","PERIOD":"95.592","ECCENTRICITY":"0.00018350"},{"RA_OF_ASC_NODE":"239.9105","MEAN_MOTION_DOT":"0.00001543","OBJECT_NAME":"STARLINK-1210","APOAPSIS":"548.608","CLASSIFICATION_TYPE":"U","ELEMENT_SET_NO":"999","TIME_SYSTEM":"UTC","SEMIMAJOR_AXIS":"6925.334","NORAD_CAT_ID":"45207","INCLINATION":"53.0543","SITE":"AFETR","TLE_LINE1":"1 45207U 20012AF  21323.51064980  .00001543  00000-0  12243-3 0  9995","CENTER_NAME":"EARTH","MEAN_ANOMALY":"290.9389","LAUNCH_DATE":"2020-02-17","COUNTRY_CODE":"US","EPHEMERIS_TYPE":"0","BSTAR":"0.00012243000000","REV_AT_EPOCH":"9830","FILE":"3219209","OBJECT_ID":"2020-012AF","ARG_OF_PERICENTER":"69.1818","DECAY_DATE":null,"RCS_SIZE":"LARGE","TLE_LINE2":"2 45207  53.0543 239.9105 0002035  69.1818 290.9389 15.06404831 98304","PERIAPSIS":"545.789","GP_ID":"190073382","PERIOD":"95.592","MEAN_MOTION_DDOT":"0.0000000000000","EPOCH":"2021-11-19T12:15:20.142720","OBJECT_TYPE":"PAYLOAD","MEAN_ELEMENT_THEORY":"SGP4","MEAN_MOTION":"15.06404831","REF_FRAME":"TEME","ECCENTRICITY":"0.00020350"},{"ECCENTRICITY":"0.00018140","PERIOD":"95.645","GP_ID":"190072129","OBJECT_TYPE":"PAYLOAD","MEAN_MOTION":"15.05574584","REF_FRAME":"TEME","MEAN_ELEMENT_THEORY":"SGP4","MEAN_MOTION_DDOT":"0.0000000000000","EPOCH":"2021-11-19T11:45:15.918912","TLE_LINE2":"2 45208  52.9994 240.0053 0001814  68.5508 291.5673 15.05574584 98216","PERIAPSIS":"548.488","DECAY_DATE":null,"RCS_SIZE":"LARGE","LAUNCH_DATE":"2020-02-17","COUNTRY_CODE":"US","MEAN_ANOMALY":"291.5673","EPHEMERIS_TYPE":"0","BSTAR":"-0.00000908520000","OBJECT_ID":"2020-012AG","ARG_OF_PERICENTER":"68.5508","REV_AT_EPOCH":"9821","FILE":"3219209","SITE":"AFETR","TLE_LINE1":"1 45208U 20012AG  21323.48976758 -.00000412  00000-0 -90852-5 0  9997","INCLINATION":"52.9994","CENTER_NAME":"EARTH","ELEMENT_SET_NO":"999","TIME_SYSTEM":"UTC","SEMIMAJOR_AXIS":"6927.879","NORAD_CAT_ID":"45208","RA_OF_ASC_NODE":"240.0053","MEAN_MOTION_DOT":"-0.00000412","APOAPSIS":"551.001","CLASSIFICATION_TYPE":"U","OBJECT_NAME":"STARLINK-1211"},{"DECAY_DATE":null,"RCS_SIZE":"LARGE","TLE_LINE2":"2 45209  53.0518 173.4765 0003496  28.8180 331.3029 15.69743067 99160","PERIAPSIS":"357.279","PERIOD":"91.735","GP_ID":"190072380","MEAN_MOTION":"15.69743067","REF_FRAME":"TEME","MEAN_ELEMENT_THEORY":"SGP4","OBJECT_TYPE":"PAYLOAD","EPOCH":"2021-11-19T07:27:09.355680","MEAN_MOTION_DDOT":"0.0000000000000","ECCENTRICITY":"0.00034960","MEAN_MOTION_DOT":"0.00025416","RA_OF_ASC_NODE":"173.4765","APOAPSIS":"361.990","CLASSIFICATION_TYPE":"U","OBJECT_NAME":"STARLINK-1218","TIME_SYSTEM":"UTC","ELEMENT_SET_NO":"999","SEMIMAJOR_AXIS":"6737.769","NORAD_CAT_ID":"45209","TLE_LINE1":"1 45209U 20012AH  21323.31052495  .00025416  00000-0  21365-3 0  9993","SITE":"AFETR","INCLINATION":"53.0518","CENTER_NAME":"EARTH","EPHEMERIS_TYPE":"0","BSTAR":"0.00021365000000","MEAN_ANOMALY":"331.3029","LAUNCH_DATE":"2020-02-17","COUNTRY_CODE":"US","ARG_OF_PERICENTER":"28.8180","OBJECT_ID":"2020-012AH","FILE":"3219209","REV_AT_EPOCH":"9916"},{"PERIOD":"95.593","GP_ID":"190073132","OBJECT_TYPE":"PAYLOAD","MEAN_ELEMENT_THEORY":"SGP4","MEAN_MOTION":"15.06388087","REF_FRAME":"TEME","MEAN_MOTION_DDOT":"0.0000000000000","EPOCH":"2021-11-19T12:20:40.133760","ECCENTRICITY":"0.00017980","DECAY_DATE":null,"RCS_SIZE":"LARGE","TLE_LINE2":"2 45210  53.0547 239.9086 0001798  69.0655 291.0527 15.06388087 98190","PERIAPSIS":"546.005","SITE":"AFETR","TLE_LINE1":"1 45210U 20012AJ  21323.51435340 -.00000521  00000-0 -16086-4 0  9998","INCLINATION":"53.0547","CENTER_NAME":"EARTH","COUNTRY_CODE":"US","LAUNCH_DATE":"2020-02-17","MEAN_ANOMALY":"291.0527","BSTAR":"-0.00001608600000","EPHEMERIS_TYPE":"0","OBJECT_ID":"2020-012AJ","ARG_OF_PERICENTER":"69.0655","REV_AT_EPOCH":"9819","FILE":"3219209","RA_OF_ASC_NODE":"239.9086","MEAN_MOTION_DOT":"-0.00000521","APOAPSIS":"548.495","CLASSIFICATION_TYPE":"U","OBJECT_NAME":"STARLINK-1219","ELEMENT_SET_NO":"999","TIME_SYSTEM":"UTC","SEMIMAJOR_AXIS":"6925.385","NORAD_CAT_ID":"45210"},{"EPHEMERIS_TYPE":"0","BSTAR":"-0.00011225000000","MEAN_ANOMALY":"295.7094","LAUNCH_DATE":"2020-02-17","COUNTRY_CODE":"US","ARG_OF_PERICENTER":"64.4074","OBJECT_ID":"2020-012AL","FILE":"3219209","REV_AT_EPOCH":"9825","TLE_LINE1":"1 45212U 20012AL  21323.48118310 -.00001953  00000-0 -11225-3 0  9990","SITE":"AFETR","INCLINATION":"53.0531","CENTER_NAME":"EARTH","TIME_SYSTEM":"UTC","ELEMENT_SET_NO":"999","NORAD_CAT_ID":"45212","SEMIMAJOR_AXIS":"6925.380","MEAN_MOTION_DOT":"-0.00001953","RA_OF_ASC_NODE":"240.0536","CLASSIFICATION_TYPE":"U","APOAPSIS":"548.450","OBJECT_NAME":"STARLINK-1231","ECCENTRICITY":"0.00017400","PERIOD":"95.593","GP_ID":"190073882","MEAN_MOTION":"15.06389817","MEAN_ELEMENT_THEORY":"SGP4","REF_FRAME":"TEME","OBJECT_TYPE":"PAYLOAD","EPOCH":"2021-11-19T11:32:54.219840","MEAN_MOTION_DDOT":"0.0000000000000","PERIAPSIS":"546.040","TLE_LINE2":"2 45212  53.0531 240.0536 0001740  64.4074 295.7094 15.06389817 98258","DECAY_DATE":null,"RCS_SIZE":"LARGE"}];
